[
    {
        "CCSDS_OMM_VERS": "3.0",
        "COMMENT": "GENERATED VIA SPACE-TRACK.ORG API",
        "CREATION_DATE": "2025-04-12T22:09:39",
        "ORIGINATOR": "18 SPCS",
        "OBJECT_NAME": "BEIDOU 3 M28",
        "OBJECT_ID": "2023-207A",
        "CENTER_NAME": "EARTH",
        "REF_FRAME": "TEME",
        "TIME_SYSTEM": "UTC",
        "MEAN_ELEMENT_THEORY": "SGP4",
        "EPOCH": "2025-04-12T02:56:56.182272",
        "MEAN_MOTION": "1.86232155",
        "ECCENTRICITY": "0.00048650",
        "INCLINATION": "55.3685",
        "RA_OF_ASC_NODE": "76.8891",
        "ARG_OF_PERICENTER": "304.1194",
        "MEAN_ANOMALY": "55.8125",
        "EPHEMERIS_TYPE": "0",
        "CLASSIFICATION_TYPE": "U",
        "NORAD_CAT_ID": "58654",
        "ELEMENT_SET_NO": "999",
        "REV_AT_EPOCH": "881",
        "BSTAR": "0.00000000000000",
        "MEAN_MOTION_DOT": "-0.00000017",
        "MEAN_MOTION_DDOT": "0.0000000000000",
        "SEMIMAJOR_AXIS": "27906.073",
        "PERIOD": "773.228",
        "APOAPSIS": "21541.514",
        "PERIAPSIS": "21514.362",
        "OBJECT_TYPE": "PAYLOAD",
        "RCS_SIZE": "LARGE",
        "COUNTRY_CODE": "PRC",
        "LAUNCH_DATE": "2023-12-26",
        "SITE": "XSC",
        "DECAY_DATE": null,
        "FILE": "4699941",
        "GP_ID": "285456261",
        "TLE_LINE0": "0 BEIDOU 3 M28",
        "TLE_LINE1": "1 58654U 23207A   25102.12287248 -.00000017  00000-0  00000-0 0  9995",
        "TLE_LINE2": "2 58654  55.3685  76.8891 0004865 304.1194  55.8125  1.86232155  8812"
    }
]